[{"OBJECT_NAME":"HORUS 2","OBJECT_ID":"2023-032A","EPOCH":"2026-03-09T22:32:30.893280","MEAN_MOTION":15.23604467,"ECCENTRICITY":0.00034558,"INCLINATION":97.3597,"RA_OF_ASC_NODE":146.3013,"ARG_OF_PERICENTER":105.0024,"MEAN_ANOMALY":255.1596,"EPHEMERIS_TYPE":0,"CLASSIFICATION_TYPE":"U","NORAD_CAT_ID":55844,"ELEMENT_SET_NO":999,"REV_AT_EPOCH":16637,"BSTAR":0.00034847707,"MEAN_MOTION_DOT":8.276e-5,"MEAN_MOTION_DDOT":0},{"OBJECT_NAME":"OBJECT E","OBJECT_ID":"2023-091E","EPOCH":"2026-03-09T22:26:33.073728","MEAN_MOTION":15.22514482,"ECCENTRICITY":0.00108779,"INCLINATION":97.5235,"RA_OF_ASC_NODE":130.4024,"ARG_OF_PERICENTER":84.6411,"MEAN_ANOMALY":275.6066,"EPHEMERIS_TYPE":0,"CLASSIFICATION_TYPE":"U","NORAD_CAT_ID":57170,"ELEMENT_SET_NO":999,"REV_AT_EPOCH":14905,"BSTAR":0.00044574871,"MEAN_MOTION_DOT":0.00010283,"MEAN_MOTION_DDOT":0}]
